OBJECT_NAME,OBJECT_ID,EPOCH,MEAN_MOTION,ECCENTRICITY,INCLINATION,RA_OF_ASC_NODE,ARG_OF_PERICENTER,MEAN_ANOMALY,EPHEMERIS_TYPE,CLASSIFICATION_TYPE,NORAD_CAT_ID,ELEMENT_SET_NO,REV_AT_EPOCH,BSTAR,MEAN_MOTION_DOT,MEAN_MOTION_DDOT
HAWK-6B,2023-011A,2026-06-13T23:16:33.648096,15.22907751,.00029262,40.4994,10.8375,341.5085,18.5617,0,U,55324,999,18735,.23250396E-3,.5376E-4,0
HAWK-6C,2023-011C,2026-06-13T20:06:44.071776,15.22903526,.00036004,40.4992,8.4442,329.4805,30.5794,0,U,55326,999,18734,.19404628E-3,.4453E-4,0
HAWK-6A,2023-011D,2026-06-13T20:06:48.861792,15.22903337,.00034048,40.4994,10.0690,328.2172,31.8431,0,U,55327,999,18734,.21673741E-3,.4997E-4,0
HAWK-7A,2023-054P,2026-06-14T10:10:55.029792,15.27335217,.0004493,97.2709,52.8321,63.7236,296.4465,0,U,56191,999,17660,.21308E-3,.5633E-4,0
HAWK-7B,2023-054R,2026-06-14T05:27:45.692352,15.27329252,.0003921,97.2735,50.9042,77.7736,282.3942,0,U,56193,999,17657,.16426E-3,.4325E-4,0
HAWK-7C,2023-054Y,2026-06-14T11:44:58.668288,15.27335872,.0003847,97.2712,51.9286,65.9299,294.2343,0,U,56200,999,17661,.21244E-3,.5616E-4,0
